{
"type": "FeatureCollection",
"crs": { "type": "name", "properties": { "name": "urn:ogc:def:crs:OGC:1.3:CRS84" } },
"features": [
{ "type": "Feature", "properties": { "id": 111178411, "tags": { "amenity": "toilets", "created_by": "Potlatch 0.8c" } }, "geometry": { "type": "Point", "coordinates": [ 174.7836582, -36.8980761 ] } },
{ "type": "Feature", "properties": { "id": 172790042, "tags": { "access": "yes", "amenity": "toilets", "check_date": "2024-10-26", "opening_hours": "10:00-16:00", "source": "knowledge", "toilets:disposal": "flush", "toilets:handwashing": "yes" } }, "geometry": { "type": "Point", "coordinates": [ 174.769070199999987, -41.2809429 ] } },
{ "type": "Feature", "properties": { "id": 172791989, "tags": { "amenity": "toilets", "changing_table": "yes", "check_date": "2023-01-22", "fee": "no", "source": "knowledge", "wheelchair": "yes" } }, "geometry": { "type": "Point", "coordinates": [ 174.76748520000001, -41.2855354 ] } },
{ "type": "Feature", "properties": { "id": 262101967, "tags": { "amenity": "toilets" } }, "geometry": { "type": "Point", "coordinates": [ 174.775457100000011, -36.8856729 ] } },
{ "type": "Feature", "properties": { "id": 267783249, "tags": { "amenity": "toilets", "wheelchair": "yes" } }, "geometry": { "type": "Point", "coordinates": [ 174.7855363, -41.2885692 ] } },
{ "type": "Feature", "properties": { "id": 269292973, "tags": { "access": "yes", "amenity": "toilets", "check_date": "2024-10-19", "check_date:opening_hours": "2024-10-19", "fee": "no", "opening_hours": "Mo-Su 09:00-21:00", "toilets:disposal": "flush", "unisex": "yes", "wheelchair": "yes" } }, "geometry": { "type": "Point", "coordinates": [ 174.7901089, -41.2906167 ] } },
{ "type": "Feature", "properties": { "id": 269467753, "tags": { "access": "yes", "amenity": "toilets", "brand": "Exeloo", "changing_table": "no", "check_date": "2024-01-03", "fee": "no", "opening_hours": "24/7", "wheelchair": "yes" } }, "geometry": { "type": "Point", "coordinates": [ 174.7828634, -41.2939857 ] } },
{ "type": "Feature", "properties": { "id": 288641871, "tags": { "amenity": "toilets", "changing_table": "yes", "fee": "no", "wheelchair": "yes" } }, "geometry": { "type": "Point", "coordinates": [ 174.79326660000001, -41.3044088 ] } },
{ "type": "Feature", "properties": { "id": 294438566, "tags": { "access": "yes", "amenity": "toilets", "fee": "no", "female": "yes", "male": "yes", "unisex": "yes", "wheelchair": "yes" } }, "geometry": { "type": "Point", "coordinates": [ 174.7928302, -41.298067 ] } },
{ "type": "Feature", "properties": { "id": 301920046, "tags": { "access": "yes", "amenity": "toilets", "fee": "no", "wheelchair": "yes" } }, "geometry": { "type": "Point", "coordinates": [ 174.7802599, -41.3134366 ] } },
{ "type": "Feature", "properties": { "id": 307350001, "tags": { "amenity": "toilets" } }, "geometry": { "type": "Point", "coordinates": [ 174.7658313, -41.2816049 ] } },
{ "type": "Feature", "properties": { "id": 356515497, "tags": { "amenity": "toilets", "changing_table": "yes", "wheelchair": "yes" } }, "geometry": { "type": "Point", "coordinates": [ 174.7758528, -41.2846812 ] } },
{ "type": "Feature", "properties": { "id": 365634516, "tags": { "amenity": "toilets", "fee": "no", "operator": "Department of Conservation" } }, "geometry": { "type": "Point", "coordinates": [ 174.2341581, -41.0943329 ] } },
{ "type": "Feature", "properties": { "id": 595476109, "tags": { "access": "yes", "amenity": "toilets", "check_date": "2023-08-12", "fee": "no", "level": "0", "portable": "no", "toilets:disposal": "flush", "wheelchair": "yes" } }, "geometry": { "type": "Point", "coordinates": [ 168.6613769, -45.0308864 ] } },
{ "type": "Feature", "properties": { "id": 623487008, "tags": { "amenity": "toilets", "fee": "no", "toilets:disposal": "flush" } }, "geometry": { "type": "Point", "coordinates": [ 174.8061368, -36.8277231 ] } },
{ "type": "Feature", "properties": { "id": 676068108, "tags": { "amenity": "toilets", "fee": "no" } }, "geometry": { "type": "Point", "coordinates": [ 175.5624262, -38.5112858 ] } },
{ "type": "Feature", "properties": { "id": 875577083, "tags": { "amenity": "toilets", "fee": "no" } }, "geometry": { "type": "Point", "coordinates": [ 174.7562294, -36.7388837 ] } },
{ "type": "Feature", "properties": { "id": 982175933, "tags": { "access": "yes", "amenity": "toilets", "changing_table": "yes", "fee": "no", "operator": "Auckland Council", "toilets:disposal": "flush", "toilets:handwashing": "yes", "toilets:paper_supplied": "yes", "toilets:position": "seated;urinal", "unisex": "yes", "wheelchair": "yes" } }, "geometry": { "type": "Point", "coordinates": [ 174.694194399999986, -36.5869174 ] } },
{ "type": "Feature", "properties": { "id": 985003549, "tags": { "amenity": "toilets", "fee": "no" } }, "geometry": { "type": "Point", "coordinates": [ 174.7608368, -36.8648575 ] } },
{ "type": "Feature", "properties": { "id": 987467180, "tags": { "access": "yes", "amenity": "toilets", "changing_table": "no", "fee": "no", "toilets:disposal": "flush", "unisex": "yes", "wheelchair": "yes" } }, "geometry": { "type": "Point", "coordinates": [ 174.697829899999988, -36.5889692 ] } },
{ "type": "Feature", "properties": { "id": 993177248, "tags": { "access": "yes", "amenity": "toilets", "changing_table": "yes", "changing_table:count": "1", "fee": "no", "handwashing:soap": "yes", "hot_water": "yes", "toilets:disposal": "flush", "toilets:hands_drying": "electric_hand_dryer", "toilets:position": "seated", "unisex": "yes", "wheelchair": "no" } }, "geometry": { "type": "Point", "coordinates": [ 174.7792747, -41.2849981 ] } },
{ "type": "Feature", "properties": { "id": 993177249, "tags": { "access": "yes", "amenity": "toilets", "fee": "no", "female": "yes", "toilets:disposal": "flush" } }, "geometry": { "type": "Point", "coordinates": [ 174.7798666, -41.2845902 ] } },
{ "type": "Feature", "properties": { "id": 1010566703, "tags": { "amenity": "toilets", "fee": "no", "wheelchair": "yes" } }, "geometry": { "type": "Point", "coordinates": [ 174.7509461, -36.6956346 ] } },
{ "type": "Feature", "properties": { "id": 1083336766, "tags": { "amenity": "toilets" } }, "geometry": { "type": "Point", "coordinates": [ 174.9517046, -37.1013865 ] } },
{ "type": "Feature", "properties": { "id": 1084919436, "tags": { "amenity": "toilets" } }, "geometry": { "type": "Point", "coordinates": [ 175.1492905, -37.666171 ] } },
{ "type": "Feature", "properties": { "id": 1084919445, "tags": { "amenity": "toilets" } }, "geometry": { "type": "Point", "coordinates": [ 175.148941, -37.667957 ] } },
{ "type": "Feature", "properties": { "id": 1124450835, "tags": { "amenity": "toilets" } }, "geometry": { "type": "Point", "coordinates": [ 174.1843893, -41.1010721 ] } },
{ "type": "Feature", "properties": { "id": 1124450911, "tags": { "amenity": "toilets" } }, "geometry": { "type": "Point", "coordinates": [ 174.201610100000011, -41.120673 ] } },
{ "type": "Feature", "properties": { "id": 1124451023, "tags": { "amenity": "toilets" } }, "geometry": { "type": "Point", "coordinates": [ 174.2177992, -41.1141878 ] } },
{ "type": "Feature", "properties": { "id": 1426049755, "tags": { "access": "yes", "amenity": "toilets", "changing_table": "yes", "check_date": "2023-01-13", "fee": "no", "toilets:disposal": "flush", "toilets:position": "seated", "unisex": "yes", "wheelchair": "yes" } }, "geometry": { "type": "Point", "coordinates": [ 169.1354306, -44.6942611 ] } },
{ "type": "Feature", "properties": { "id": 1426049756, "tags": { "access": "yes", "amenity": "toilets", "changing_table": "yes", "fee": "no", "toilets:disposal": "flush", "toilets:handwashing": "yes", "toilets:position": "sitting", "unisex": "yes", "wheelchair": "yes" } }, "geometry": { "type": "Point", "coordinates": [ 169.1255444, -44.6990522 ] } },
{ "type": "Feature", "properties": { "id": 1578908646, "tags": { "amenity": "toilets" } }, "geometry": { "type": "Point", "coordinates": [ 175.3947474, -39.1718226 ] } },
{ "type": "Feature", "properties": { "id": 1611076972, "tags": { "access": "yes", "amenity": "toilets", "changing_table": "yes", "fee": "no", "female": "yes", "male": "yes", "name": "Lobster loos", "opening_hours": "24/7", "wheelchair": "yes" } }, "geometry": { "type": "Point", "coordinates": [ 174.7783882, -41.2837812 ] } },
{ "type": "Feature", "properties": { "id": 1661792929, "tags": { "amenity": "toilets", "check_date": "2025-02-23" } }, "geometry": { "type": "Point", "coordinates": [ 169.1896897, -44.6779916 ] } },
{ "type": "Feature", "properties": { "id": 1680775147, "tags": { "amenity": "toilets" } }, "geometry": { "type": "Point", "coordinates": [ 175.663735, -39.0734649 ] } },
{ "type": "Feature", "properties": { "id": 1695713718, "tags": { "amenity": "toilets" } }, "geometry": { "type": "Point", "coordinates": [ 175.070702399999988, -39.1083733 ] } },
{ "type": "Feature", "properties": { "id": 1706614596, "tags": { "amenity": "toilets", "check_date": "2022-01-18" } }, "geometry": { "type": "Point", "coordinates": [ 175.620922299999989, -40.3713491 ] } },
{ "type": "Feature", "properties": { "id": 2100904815, "tags": { "amenity": "toilets" } }, "geometry": { "type": "Point", "coordinates": [ 175.6111807, -40.3708775 ] } },
{ "type": "Feature", "properties": { "id": 2133466468, "tags": { "amenity": "toilets" } }, "geometry": { "type": "Point", "coordinates": [ 174.5889553, -36.0867383 ] } },
{ "type": "Feature", "properties": { "id": 2179685866, "tags": { "amenity": "toilets", "source": "Survey" } }, "geometry": { "type": "Point", "coordinates": [ 169.1038005, -44.6822067 ] } },
{ "type": "Feature", "properties": { "id": 2207195607, "tags": { "amenity": "toilets" } }, "geometry": { "type": "Point", "coordinates": [ 175.2244341, -40.8768395 ] } },
{ "type": "Feature", "properties": { "id": 2345281700, "tags": { "amenity": "toilets" } }, "geometry": { "type": "Point", "coordinates": [ 175.254002, -37.7433377 ] } },
{ "type": "Feature", "properties": { "id": 2524032038, "tags": { "amenity": "toilets" } }, "geometry": { "type": "Point", "coordinates": [ 175.2643004, -37.7877311 ] } },
{ "type": "Feature", "properties": { "id": 2526166571, "tags": { "amenity": "toilets" } }, "geometry": { "type": "Point", "coordinates": [ 175.272057, -37.7999302 ] } },
{ "type": "Feature", "properties": { "id": 2528891549, "tags": { "amenity": "toilets" } }, "geometry": { "type": "Point", "coordinates": [ 175.2688211, -37.7739024 ] } },
{ "type": "Feature", "properties": { "id": 2625399849, "tags": { "access": "yes", "amenity": "toilets", "changing_table": "no", "fee": "no", "opening_hours": "Mo-Su 07:00-23:00", "wheelchair": "yes" } }, "geometry": { "type": "Point", "coordinates": [ 174.785925099999986, -41.2919288 ] } },
{ "type": "Feature", "properties": { "id": 2647705978, "tags": { "amenity": "toilets" } }, "geometry": { "type": "Point", "coordinates": [ 174.1883296, -41.0947866 ] } },
{ "type": "Feature", "properties": { "id": 2653514670, "tags": { "amenity": "toilets" } }, "geometry": { "type": "Point", "coordinates": [ 174.7634291, -36.8717925 ] } },
{ "type": "Feature", "properties": { "id": 2672384304, "tags": { "access": "yes", "amenity": "toilets", "drinking_water": "yes", "fee": "no", "toilets:disposal": "flush", "toilets:position": "seated;urinal", "wheelchair": "yes" } }, "geometry": { "type": "Point", "coordinates": [ 169.183525300000014, -44.6828065 ] } },
{ "type": "Feature", "properties": { "id": 2749782184, "tags": { "access": "yes", "amenity": "toilets", "drinking_water": "no", "fee": "no", "toilets:disposal": "pitlatrine" } }, "geometry": { "type": "Point", "coordinates": [ 173.9396582, -41.2540422 ] } },
{ "type": "Feature", "properties": { "id": 2845780232, "tags": { "amenity": "toilets" } }, "geometry": { "type": "Point", "coordinates": [ 175.3590183, -40.6605654 ] } },
{ "type": "Feature", "properties": { "id": 2928405394, "tags": { "amenity": "toilets" } }, "geometry": { "type": "Point", "coordinates": [ 175.2654124, -37.7885627 ] } },
{ "type": "Feature", "properties": { "id": 3056566616, "tags": { "access": "yes", "amenity": "toilets", "fee": "no", "female": "yes", "male": "yes", "toilets:disposal": "flush", "toilets:position": "seated;urinal", "wheelchair": "yes" } }, "geometry": { "type": "Point", "coordinates": [ 175.0546096, -39.9222371 ] } },
{ "type": "Feature", "properties": { "id": 3125383631, "tags": { "amenity": "toilets" } }, "geometry": { "type": "Point", "coordinates": [ 174.7853582, -36.9222971 ] } },
{ "type": "Feature", "properties": { "id": 3242545963, "tags": { "amenity": "toilets", "changing_table": "no", "fee": "no", "wheelchair": "yes" } }, "geometry": { "type": "Point", "coordinates": [ 168.6601508, -45.0376299 ] } },
{ "type": "Feature", "properties": { "id": 3339463305, "tags": { "access": "yes", "amenity": "toilets", "wheelchair": "yes" } }, "geometry": { "type": "Point", "coordinates": [ 175.4918796, -38.6337927 ] } },
{ "type": "Feature", "properties": { "id": 3351615251, "tags": { "amenity": "toilets", "check_date": "2023-01-12", "fee": "no", "name": "Public Toilets" } }, "geometry": { "type": "Point", "coordinates": [ 168.8337977, -44.9382477 ] } },
{ "type": "Feature", "properties": { "id": 3436747401, "tags": { "amenity": "toilets" } }, "geometry": { "type": "Point", "coordinates": [ 174.7866795, -36.9420539 ] } },
{ "type": "Feature", "properties": { "id": 3913387415, "tags": { "amenity": "toilets" } }, "geometry": { "type": "Point", "coordinates": [ 175.1561676, -37.6065951 ] } },
{ "type": "Feature", "properties": { "id": 4019089507, "tags": { "amenity": "toilets" } }, "geometry": { "type": "Point", "coordinates": [ 174.788739, -36.8956947 ] } },
{ "type": "Feature", "properties": { "id": 4035737100, "tags": { "access": "yes", "amenity": "toilets", "fee": "no", "operator": "Tasman District Council", "toilets:disposal": "flush", "wheelchair": "yes" } }, "geometry": { "type": "Point", "coordinates": [ 172.843459700000011, -41.8061523 ] } },
{ "type": "Feature", "properties": { "id": 4064856528, "tags": { "amenity": "toilets", "opening_hours": "24/7", "supervised": "no", "toilets:disposal": "pitlatrine", "unisex": "yes", "wheelchair": "no" } }, "geometry": { "type": "Point", "coordinates": [ 175.3981909, -38.9963582 ] } },
{ "type": "Feature", "properties": { "id": 4173444451, "tags": { "access": "yes", "amenity": "toilets", "changing_table": "yes", "fee": "no", "toilets": "unisex", "wheelchair": "yes" } }, "geometry": { "type": "Point", "coordinates": [ 168.8290724, -44.9373935 ] } },
{ "type": "Feature", "properties": { "id": 4173445305, "tags": { "amenity": "toilets", "changing_table": "yes", "fee": "no" } }, "geometry": { "type": "Point", "coordinates": [ 168.6569926, -45.028231 ] } },
{ "type": "Feature", "properties": { "id": 4182758166, "tags": { "access": "yes", "amenity": "toilets", "changing_table": "no", "fee": "no", "wheelchair": "yes" } }, "geometry": { "type": "Point", "coordinates": [ 169.1342601, -44.6960815 ] } },
{ "type": "Feature", "properties": { "id": 4190360909, "tags": { "access": "yes", "amenity": "toilets", "changing_table": "yes", "check_date": "2025-03-04", "fee": "no", "wheelchair": "yes" } }, "geometry": { "type": "Point", "coordinates": [ 173.766732600000012, -41.2787409 ] } },
{ "type": "Feature", "properties": { "id": 4211583563, "tags": { "access": "yes", "amenity": "toilets", "changing_table": "yes", "changing_table:location": "room", "check_date": "2024-01-19", "fee": "no", "level": "2", "wheelchair": "yes" } }, "geometry": { "type": "Point", "coordinates": [ 174.7813372, -41.2905971 ] } },
{ "type": "Feature", "properties": { "id": 4211583880, "tags": { "amenity": "toilets", "changing_table": "yes", "changing_table:location": "female_toilet", "fee": "no", "level": "4", "wheelchair": "yes" } }, "geometry": { "type": "Point", "coordinates": [ 174.7826038, -41.2899788 ] } },
{ "type": "Feature", "properties": { "id": 4218286205, "tags": { "access": "passengers", "amenity": "toilets", "changing_table:fee": "no", "changing_table:location": "unisex_toilet;wheelchair_toilet", "fee": "no", "toilets:disposal": "flush", "wheelchair": "yes" } }, "geometry": { "type": "Point", "coordinates": [ 174.767461700000013, -36.8424031 ] } },
{ "type": "Feature", "properties": { "id": 4281458535, "tags": { "amenity": "toilets" } }, "geometry": { "type": "Point", "coordinates": [ 174.7675944, -36.8769378 ] } },
{ "type": "Feature", "properties": { "id": 4313800691, "tags": { "amenity": "toilets", "level": "-1", "opening_hours": "24/7", "operator": "Auckland Transport" } }, "geometry": { "type": "Point", "coordinates": [ 174.767647399999987, -36.8440017 ] } },
{ "type": "Feature", "properties": { "id": 4333176789, "tags": { "amenity": "toilets", "opening_hours": "Mo-Su 06:00-23:00", "operator": "Auckland Transport" } }, "geometry": { "type": "Point", "coordinates": [ 174.7643945, -36.8437422 ] } },
{ "type": "Feature", "properties": { "id": 4450144872, "tags": { "amenity": "toilets", "changing_table": "no", "drinking_water": "no", "fee": "no", "operator": "Department of Conservation", "toilets:disposal": "pitlatrine", "toilets:position": "seated", "unisex": "yes", "wheelchair": "no" } }, "geometry": { "type": "Point", "coordinates": [ 174.9738286, -39.2752442 ] } },
{ "type": "Feature", "properties": { "id": 4460789327, "tags": { "access": "yes", "amenity": "toilets", "fee": "no", "operator": "Palmerston North City Council", "toilets:disposal": "pitlatrine", "unisex": "yes" } }, "geometry": { "type": "Point", "coordinates": [ 175.611581300000012, -40.4684145 ] } },
{ "type": "Feature", "properties": { "id": 4590512731, "tags": { "amenity": "toilets" } }, "geometry": { "type": "Point", "coordinates": [ 175.6518695, -39.0868226 ] } },
{ "type": "Feature", "properties": { "id": 4597282899, "tags": { "amenity": "toilets" } }, "geometry": { "type": "Point", "coordinates": [ 168.6490823, -45.0373564 ] } },
{ "type": "Feature", "properties": { "id": 4612760834, "tags": { "amenity": "toilets", "check_date": "2023-01-22", "fee": "no", "wheelchair": "yes" } }, "geometry": { "type": "Point", "coordinates": [ 174.777744, -41.2886037 ] } },
{ "type": "Feature", "properties": { "id": 4615598789, "tags": { "amenity": "toilets" } }, "geometry": { "type": "Point", "coordinates": [ 175.574451399999987, -38.5963036 ] } },
{ "type": "Feature", "properties": { "id": 4615599190, "tags": { "amenity": "toilets" } }, "geometry": { "type": "Point", "coordinates": [ 175.411937200000011, -38.684903 ] } },
{ "type": "Feature", "properties": { "id": 4640821101, "tags": { "amenity": "toilets" } }, "geometry": { "type": "Point", "coordinates": [ 168.7571159, -44.9968575 ] } },
{ "type": "Feature", "properties": { "id": 4641491045, "tags": { "amenity": "toilets" } }, "geometry": { "type": "Point", "coordinates": [ 175.0594825, -39.9174648 ] } },
{ "type": "Feature", "properties": { "id": 4646787862, "tags": { "amenity": "toilets" } }, "geometry": { "type": "Point", "coordinates": [ 175.0456787, -39.9145578 ] } },
{ "type": "Feature", "properties": { "id": 4651304824, "tags": { "amenity": "toilets" } }, "geometry": { "type": "Point", "coordinates": [ 174.147040800000013, -41.1280466 ] } },
{ "type": "Feature", "properties": { "id": 4651311937, "tags": { "amenity": "toilets" } }, "geometry": { "type": "Point", "coordinates": [ 174.0652341, -41.2002619 ] } },
{ "type": "Feature", "properties": { "id": 4651317139, "tags": { "amenity": "toilets" } }, "geometry": { "type": "Point", "coordinates": [ 174.0317234, -41.2054014 ] } },
{ "type": "Feature", "properties": { "id": 4651323307, "tags": { "amenity": "toilets" } }, "geometry": { "type": "Point", "coordinates": [ 173.9715067, -41.2193633 ] } },
{ "type": "Feature", "properties": { "id": 4682320790, "tags": { "amenity": "toilets", "opening_hours": "24/7" } }, "geometry": { "type": "Point", "coordinates": [ 173.2652675, -35.1139404 ] } },
{ "type": "Feature", "properties": { "id": 4735833023, "tags": { "access": "yes", "amenity": "toilets", "fee": "no", "toilets:disposal": "flush" } }, "geometry": { "type": "Point", "coordinates": [ 174.766701, -36.8423939 ] } },
{ "type": "Feature", "properties": { "id": 4761037924, "tags": { "access": "yes", "amenity": "toilets", "cold_water": "yes", "drinking_water": "yes", "fee": "no", "hot_water": "no", "indoor": "no", "opening_hours": "24/7", "supervised": "no", "toilets:changing_table": "no", "toilets:disabled": "1", "toilets:disposal": "flush", "toilets:handwashing": "yes", "toilets:number": "3", "toilets:paper_supplied": "yes", "toilets:position": "seated;urinal", "wheelchair": "yes" } }, "geometry": { "type": "Point", "coordinates": [ 168.6616926, -45.0337017 ] } },
{ "type": "Feature", "properties": { "id": 4774135634, "tags": { "amenity": "toilets" } }, "geometry": { "type": "Point", "coordinates": [ 169.0972928, -44.6870341 ] } },
{ "type": "Feature", "properties": { "id": 4816472484, "tags": { "amenity": "toilets" } }, "geometry": { "type": "Point", "coordinates": [ 175.6255387, -39.141874 ] } },
{ "type": "Feature", "properties": { "id": 4828177137, "tags": { "amenity": "toilets", "male": "yes" } }, "geometry": { "type": "Point", "coordinates": [ 174.7815871, -36.7938377 ] } },
{ "type": "Feature", "properties": { "id": 4828177138, "tags": { "amenity": "toilets", "female": "yes" } }, "geometry": { "type": "Point", "coordinates": [ 174.7815472, -36.7938812 ] } },
{ "type": "Feature", "properties": { "id": 4828344817, "tags": { "amenity": "toilets", "changing_table": "yes", "fee": "no", "wheelchair": "yes" } }, "geometry": { "type": "Point", "coordinates": [ 174.6809065, -36.6151632 ] } },
{ "type": "Feature", "properties": { "id": 4838105821, "tags": { "amenity": "toilets", "check_date": "2023-11-30" } }, "geometry": { "type": "Point", "coordinates": [ 168.8322713, -44.9382069 ] } },
{ "type": "Feature", "properties": { "id": 4924086212, "tags": { "access": "yes", "amenity": "toilets", "fee": "no", "toilets:disposal": "flush" } }, "geometry": { "type": "Point", "coordinates": [ 175.2841463, -38.7149034 ] } },
{ "type": "Feature", "properties": { "id": 4924144227, "tags": { "amenity": "toilets", "toilets:disposal": "pitlatrine" } }, "geometry": { "type": "Point", "coordinates": [ 175.4441496, -38.6670177 ] } },
{ "type": "Feature", "properties": { "id": 4924144235, "tags": { "amenity": "toilets", "toilets:disposal": "pitlatrine" } }, "geometry": { "type": "Point", "coordinates": [ 175.365640500000012, -38.7076174 ] } },
{ "type": "Feature", "properties": { "id": 4995424192, "tags": { "amenity": "toilets" } }, "geometry": { "type": "Point", "coordinates": [ 174.0320372, -41.2026477 ] } },
{ "type": "Feature", "properties": { "id": 5005168848, "tags": { "amenity": "toilets", "fee": "no", "toilets:disposal": "flush" } }, "geometry": { "type": "Point", "coordinates": [ 173.94362240000001, -35.2146083 ] } },
{ "type": "Feature", "properties": { "id": 5038449505, "tags": { "access": "yes", "amenity": "toilets", "changing_table": "no", "fee": "no", "female": "yes", "male": "yes", "unisex": "no" } }, "geometry": { "type": "Point", "coordinates": [ 174.764919, -36.7724347 ] } },
{ "type": "Feature", "properties": { "id": 5052595140, "tags": { "amenity": "toilets", "unisex": "yes" } }, "geometry": { "type": "Point", "coordinates": [ 170.49976190000001, -44.0023915 ] } },
{ "type": "Feature", "properties": { "id": 5199253821, "tags": { "amenity": "toilets" } }, "geometry": { "type": "Point", "coordinates": [ 169.2624305, -44.6100409 ] } },
{ "type": "Feature", "properties": { "id": 5249887376, "tags": { "access": "yes", "amenity": "toilets", "drinking_water": "no", "fee": "no", "operator": "Department of Conservation", "toilets:disposal": "pitlatrine", "unisex": "yes", "wheelchair": "no" } }, "geometry": { "type": "Point", "coordinates": [ 173.6344824, -35.2331453 ] } },
{ "type": "Feature", "properties": { "id": 5251562644, "tags": { "amenity": "toilets", "toilets:disposal": "pitlatrine", "unisex": "yes" } }, "geometry": { "type": "Point", "coordinates": [ 173.5445683, -35.2358043 ] } },
{ "type": "Feature", "properties": { "id": 5319730687, "tags": { "amenity": "toilets", "fee": "no" } }, "geometry": { "type": "Point", "coordinates": [ 174.520186599999988, -35.7158411 ] } },
{ "type": "Feature", "properties": { "id": 5324749021, "tags": { "amenity": "toilets", "changing_table": "no", "fee": "no", "opening_hours": "Oct-May", "toilets:disposal": "pitlatrine", "toilets:handwashing": "no", "unisex": "yes", "wheelchair": "no" } }, "geometry": { "type": "Point", "coordinates": [ 175.655385599999988, -39.121928 ] } },
{ "type": "Feature", "properties": { "id": 5324839335, "tags": { "amenity": "toilets" } }, "geometry": { "type": "Point", "coordinates": [ 173.9405414, -41.2537093 ] } },
{ "type": "Feature", "properties": { "id": 5324893224, "tags": { "amenity": "toilets", "opening_hours": "24/7" } }, "geometry": { "type": "Point", "coordinates": [ 175.6344278, -39.1428365 ] } },
{ "type": "Feature", "properties": { "id": 5359584121, "tags": { "amenity": "toilets", "changing_table": "no", "fee": "no", "opening_hours": "Oct-May", "toilets:disposal": "pitlatrine", "toilets:handwashing": "no", "unisex": "yes", "wheelchair": "no" } }, "geometry": { "type": "Point", "coordinates": [ 175.6555959, -39.1219004 ] } },
{ "type": "Feature", "properties": { "id": 5369226749, "tags": { "amenity": "toilets" } }, "geometry": { "type": "Point", "coordinates": [ 174.119112699999988, -35.3152918 ] } },
{ "type": "Feature", "properties": { "id": 5376760546, "tags": { "amenity": "toilets" } }, "geometry": { "type": "Point", "coordinates": [ 175.2662669, -37.7978257 ] } },
{ "type": "Feature", "properties": { "id": 5402620623, "tags": { "amenity": "toilets", "name": "Public Toilet" } }, "geometry": { "type": "Point", "coordinates": [ 171.457496600000013, -43.2219538 ] } },
{ "type": "Feature", "properties": { "id": 5406847129, "tags": { "access": "yes", "amenity": "toilets", "fee": "no", "toilets:disposal": "flush", "unisex": "yes", "wheelchair": "limited" } }, "geometry": { "type": "Point", "coordinates": [ 174.779114099999987, -41.2859463 ] } },
{ "type": "Feature", "properties": { "id": 5420114530, "tags": { "access": "yes", "amenity": "toilets", "fee": "no", "toilets:disposal": "flush", "unisex": "yes" } }, "geometry": { "type": "Point", "coordinates": [ 169.1318412, -44.6899632 ] } },
{ "type": "Feature", "properties": { "id": 5441578468, "tags": { "amenity": "toilets" } }, "geometry": { "type": "Point", "coordinates": [ 170.2468443, -44.0870926 ] } },
{ "type": "Feature", "properties": { "id": 5441578469, "tags": { "amenity": "toilets" } }, "geometry": { "type": "Point", "coordinates": [ 170.4548576, -44.0207453 ] } },
{ "type": "Feature", "properties": { "id": 5458648468, "tags": { "amenity": "toilets" } }, "geometry": { "type": "Point", "coordinates": [ 168.8189529, -44.8645625 ] } },
{ "type": "Feature", "properties": { "id": 5458648469, "tags": { "amenity": "toilets" } }, "geometry": { "type": "Point", "coordinates": [ 168.8202226, -44.8662591 ] } },
{ "type": "Feature", "properties": { "id": 5603165722, "tags": { "access": "permissive", "amenity": "toilets", "changing_table": "yes", "fee": "no", "opening_hours": "24/7", "operator": "Marina", "toilets:disposal": "flush", "unisex": "yes" } }, "geometry": { "type": "Point", "coordinates": [ 174.7978813, -41.3112629 ] } },
{ "type": "Feature", "properties": { "id": 5636531880, "tags": { "amenity": "toilets", "changing_table": "no", "fee": "no", "female": "yes", "male": "yes", "opening_hours": "24/7", "supervised": "no", "toilets:disposal": "flush", "unisex": "no", "wheelchair": "no" } }, "geometry": { "type": "Point", "coordinates": [ 175.5396796, -39.2013744 ] } },
{ "type": "Feature", "properties": { "id": 5636535591, "tags": { "amenity": "toilets", "changing_table": "no", "drinking_water": "no", "fee": "no", "indoor": "no", "opening_hours": "24/7", "supervised": "no", "toilets:disposal": "pitlatrine" } }, "geometry": { "type": "Point", "coordinates": [ 167.9977142, -46.3696294 ] } },
{ "type": "Feature", "properties": { "id": 5636535872, "tags": { "amenity": "toilets", "changing_table": "yes", "drinking_water": "yes", "fee": "no", "indoor": "no", "opening_hours": "24/7", "supervised": "no", "toilets:disposal": "flush", "unisex": "yes", "wheelchair": "yes" } }, "geometry": { "type": "Point", "coordinates": [ 174.7977549, -41.3112531 ] } },
{ "type": "Feature", "properties": { "id": 5636536067, "tags": { "amenity": "toilets", "changing_table": "no", "fee": "no", "female": "yes", "male": "yes", "supervised": "no", "toilets:disposal": "flush", "unisex": "no", "wheelchair": "no" } }, "geometry": { "type": "Point", "coordinates": [ 175.149514, -38.3269931 ] } },
{ "type": "Feature", "properties": { "id": 5636538286, "tags": { "amenity": "toilets", "female": "no", "male": "yes", "supervised": "no", "toilets:disposal": "flush", "unisex": "yes", "wheelchair": "yes" } }, "geometry": { "type": "Point", "coordinates": [ 174.5975919, -36.0813296 ] } },
{ "type": "Feature", "properties": { "id": 5746104932, "tags": { "access": "yes", "amenity": "toilets", "fee": "no", "toilets:disposal": "pitlatrine", "unisex": "yes" } }, "geometry": { "type": "Point", "coordinates": [ 175.6016184, -40.4808705 ] } },
{ "type": "Feature", "properties": { "id": 5748340492, "tags": { "amenity": "toilets", "toilets:disposal": "flush", "unisex": "yes" } }, "geometry": { "type": "Point", "coordinates": [ 175.6228973, -40.3725591 ] } },
{ "type": "Feature", "properties": { "id": 6163049597, "tags": { "amenity": "toilets", "fee": "no", "wheelchair": "yes" } }, "geometry": { "type": "Point", "coordinates": [ 175.10376260000001, -38.2608446 ] } },
{ "type": "Feature", "properties": { "id": 6202334091, "tags": { "amenity": "toilets" } }, "geometry": { "type": "Point", "coordinates": [ 174.995955400000014, -40.8830854 ] } },
{ "type": "Feature", "properties": { "id": 6217535187, "tags": { "amenity": "toilets" } }, "geometry": { "type": "Point", "coordinates": [ 174.1546655, -41.1518719 ] } },
{ "type": "Feature", "properties": { "id": 6245423729, "tags": { "amenity": "toilets" } }, "geometry": { "type": "Point", "coordinates": [ 168.730547, -45.0241693 ] } },
{ "type": "Feature", "properties": { "id": 6261017285, "tags": { "amenity": "toilets" } }, "geometry": { "type": "Point", "coordinates": [ 168.179977900000011, -45.3162648 ] } },
{ "type": "Feature", "properties": { "id": 6265128985, "tags": { "amenity": "toilets", "opening_hours": "24/7" } }, "geometry": { "type": "Point", "coordinates": [ 169.1485001, -44.6642149 ] } },
{ "type": "Feature", "properties": { "id": 6268977477, "tags": { "amenity": "toilets", "fee": "no", "name": "Glendhu Bay Recreation Reserve Toilette" } }, "geometry": { "type": "Point", "coordinates": [ 169.010242299999987, -44.6713705 ] } },
{ "type": "Feature", "properties": { "id": 6345857699, "tags": { "amenity": "toilets", "fee": "no", "wheelchair": "yes" } }, "geometry": { "type": "Point", "coordinates": [ 174.97905080000001, -40.9178548 ] } },
{ "type": "Feature", "properties": { "id": 6355774498, "tags": { "amenity": "toilets", "fee": "no" } }, "geometry": { "type": "Point", "coordinates": [ 174.711895, -36.5326753 ] } },
{ "type": "Feature", "properties": { "id": 6382533863, "tags": { "amenity": "toilets" } }, "geometry": { "type": "Point", "coordinates": [ 168.792290400000013, -45.0096836 ] } },
{ "type": "Feature", "properties": { "id": 6406946284, "tags": { "amenity": "toilets" } }, "geometry": { "type": "Point", "coordinates": [ 175.668495400000012, -39.0650219 ] } },
{ "type": "Feature", "properties": { "id": 6448853089, "tags": { "amenity": "toilets" } }, "geometry": { "type": "Point", "coordinates": [ 168.172027899999989, -45.273424 ] } },
{ "type": "Feature", "properties": { "id": 6448853091, "tags": { "amenity": "toilets" } }, "geometry": { "type": "Point", "coordinates": [ 168.171018, -45.2764095 ] } },
{ "type": "Feature", "properties": { "id": 6597265567, "tags": { "amenity": "toilets", "changing_table": "no", "drinking_water": "no", "fee": "no", "operator": "Department of Conservation", "toilets:disposal": "pitlatrine", "toilets:position": "seated", "unisex": "yes", "wheelchair": "no" } }, "geometry": { "type": "Point", "coordinates": [ 174.973827300000011, -39.2752745 ] } },
{ "type": "Feature", "properties": { "id": 6597295465, "tags": { "amenity": "toilets", "changing_table": "no", "drinking_water": "no", "fee": "no", "operator": "Department of Conservation", "toilets:disposal": "pitlatrine", "toilets:position": "seated", "unisex": "yes", "wheelchair": "no" } }, "geometry": { "type": "Point", "coordinates": [ 174.9636738, -39.2824738 ] } },
{ "type": "Feature", "properties": { "id": 6604239145, "tags": { "access": "yes", "amenity": "toilets", "fee": "no", "female": "yes", "male": "yes" } }, "geometry": { "type": "Point", "coordinates": [ 169.273535, -44.6101858 ] } },
{ "type": "Feature", "properties": { "id": 6924342166, "tags": { "amenity": "toilets", "fee": "no" } }, "geometry": { "type": "Point", "coordinates": [ 174.7507905, -36.7412554 ] } },
{ "type": "Feature", "properties": { "id": 6968440485, "tags": { "amenity": "toilets" } }, "geometry": { "type": "Point", "coordinates": [ 174.77896290000001, -41.2878934 ] } },
{ "type": "Feature", "properties": { "id": 7039498773, "tags": { "amenity": "toilets", "fee": "no" } }, "geometry": { "type": "Point", "coordinates": [ 168.7342042, -45.0159556 ] } },
{ "type": "Feature", "properties": { "id": 7048736789, "tags": { "amenity": "toilets" } }, "geometry": { "type": "Point", "coordinates": [ 174.0324125, -41.2021434 ] } },
{ "type": "Feature", "properties": { "id": 7094886887, "tags": { "access": "customers", "amenity": "toilets", "indoor": "yes" } }, "geometry": { "type": "Point", "coordinates": [ 174.8402644, -41.1285951 ] } },
{ "type": "Feature", "properties": { "id": 7236518338, "tags": { "amenity": "toilets" } }, "geometry": { "type": "Point", "coordinates": [ 174.7790803, -41.2860839 ] } },
{ "type": "Feature", "properties": { "id": 7238556192, "tags": { "amenity": "toilets" } }, "geometry": { "type": "Point", "coordinates": [ 168.34527940000001, -44.934267 ] } },
{ "type": "Feature", "properties": { "id": 7246878685, "tags": { "amenity": "toilets" } }, "geometry": { "type": "Point", "coordinates": [ 174.7582415, -41.2829299 ] } },
{ "type": "Feature", "properties": { "id": 7314680282, "tags": { "amenity": "toilets" } }, "geometry": { "type": "Point", "coordinates": [ 171.528872, -43.3653676 ] } },
{ "type": "Feature", "properties": { "id": 7338927458, "tags": { "amenity": "toilets", "changing_table": "no", "toilets:disposal": "bucket", "unisex": "yes", "wheelchair": "no" } }, "geometry": { "type": "Point", "coordinates": [ 167.8515424, -46.0751778 ] } },
{ "type": "Feature", "properties": { "id": 7528120487, "tags": { "amenity": "toilets" } }, "geometry": { "type": "Point", "coordinates": [ 173.24639590000001, -41.415729 ] } },
{ "type": "Feature", "properties": { "id": 7572269678, "tags": { "amenity": "toilets", "male": "yes" } }, "geometry": { "type": "Point", "coordinates": [ 174.880493800000011, -36.9921625 ] } },
{ "type": "Feature", "properties": { "id": 7572269679, "tags": { "amenity": "toilets", "female": "yes" } }, "geometry": { "type": "Point", "coordinates": [ 174.880508600000013, -36.9922021 ] } },
{ "type": "Feature", "properties": { "id": 7572269702, "tags": { "amenity": "toilets", "check_date": "2024-11-14", "male": "yes" } }, "geometry": { "type": "Point", "coordinates": [ 174.880835600000012, -36.990721 ] } },
{ "type": "Feature", "properties": { "id": 7572269703, "tags": { "amenity": "toilets", "check_date": "2024-11-14", "female": "yes" } }, "geometry": { "type": "Point", "coordinates": [ 174.8809057, -36.9907008 ] } },
{ "type": "Feature", "properties": { "id": 7572269724, "tags": { "amenity": "toilets", "unisex": "yes" } }, "geometry": { "type": "Point", "coordinates": [ 174.8819426, -36.9909986 ] } },
{ "type": "Feature", "properties": { "id": 7579085495, "tags": { "amenity": "toilets", "toilets:disposal": "pitlatrine", "unisex": "yes" } }, "geometry": { "type": "Point", "coordinates": [ 171.5252054, -43.2468593 ] } },
{ "type": "Feature", "properties": { "id": 7581058024, "tags": { "amenity": "toilets" } }, "geometry": { "type": "Point", "coordinates": [ 171.6437971, -43.0364229 ] } },
{ "type": "Feature", "properties": { "id": 7660165351, "tags": { "access": "yes", "amenity": "toilets", "fee": "no", "level": "0", "wheelchair": "yes" } }, "geometry": { "type": "Point", "coordinates": [ 174.7661776, -36.8440984 ] } },
{ "type": "Feature", "properties": { "id": 7730231416, "tags": { "access": "yes", "amenity": "toilets", "changing_table": "yes", "check_date": "2025-01-24", "fee": "no", "toilets:disposal": "flush", "wheelchair": "yes" } }, "geometry": { "type": "Point", "coordinates": [ 174.7960788, -41.3119596 ] } },
{ "type": "Feature", "properties": { "id": 7771348485, "tags": { "amenity": "toilets", "opening_hours": "24/7" } }, "geometry": { "type": "Point", "coordinates": [ 174.5900595, -36.0909694 ] } },
{ "type": "Feature", "properties": { "id": 7863032385, "tags": { "amenity": "toilets", "opening_hours": "24/7", "operator": "Dept of Conservation" } }, "geometry": { "type": "Point", "coordinates": [ 172.385820700000011, -42.5166335 ] } },
{ "type": "Feature", "properties": { "id": 7902224585, "tags": { "amenity": "toilets" } }, "geometry": { "type": "Point", "coordinates": [ 172.9912678, -41.7311195 ] } },
{ "type": "Feature", "properties": { "id": 7996483486, "tags": { "amenity": "toilets" } }, "geometry": { "type": "Point", "coordinates": [ 168.9842549, -44.7399945 ] } },
{ "type": "Feature", "properties": { "id": 8205027826, "tags": { "access": "yes", "amenity": "toilets", "unisex": "yes" } }, "geometry": { "type": "Point", "coordinates": [ 175.627985200000012, -40.3900851 ] } },
{ "type": "Feature", "properties": { "id": 8406860283, "tags": { "access": "yes", "amenity": "toilets", "fee": "no", "opening_hours": "24/7", "operator": "Whangarei District Council" } }, "geometry": { "type": "Point", "coordinates": [ 174.5013864, -35.6317116 ] } },
{ "type": "Feature", "properties": { "id": 8498340818, "tags": { "amenity": "toilets" } }, "geometry": { "type": "Point", "coordinates": [ 167.999234199999989, -45.7072403 ] } },
{ "type": "Feature", "properties": { "id": 8502072575, "tags": { "amenity": "toilets", "fee": "no", "fixme": "location needs correcting", "toilets:disposal": "flush" } }, "geometry": { "type": "Point", "coordinates": [ 175.066084600000011, -40.8765867 ] } },
{ "type": "Feature", "properties": { "id": 8526290690, "tags": { "amenity": "toilets", "unisex": "yes" } }, "geometry": { "type": "Point", "coordinates": [ 175.0565576, -40.882484 ] } },
{ "type": "Feature", "properties": { "id": 8568179927, "tags": { "amenity": "toilets" } }, "geometry": { "type": "Point", "coordinates": [ 175.019889799999987, -40.8776939 ] } },
{ "type": "Feature", "properties": { "id": 9033424644, "tags": { "amenity": "toilets" } }, "geometry": { "type": "Point", "coordinates": [ 174.8714486, -36.9913347 ] } },
{ "type": "Feature", "properties": { "id": 9110463398, "tags": { "amenity": "toilets", "check_date": "2024-11-14", "wheelchair": "yes" } }, "geometry": { "type": "Point", "coordinates": [ 174.8812805, -36.9912209 ] } },
{ "type": "Feature", "properties": { "id": 9196634750, "tags": { "access": "yes", "amenity": "toilets", "fee": "no" } }, "geometry": { "type": "Point", "coordinates": [ 175.645792699999987, -40.3632361 ] } },
{ "type": "Feature", "properties": { "id": 9332880175, "tags": { "amenity": "toilets", "changing_table": "no", "unisex": "yes" } }, "geometry": { "type": "Point", "coordinates": [ 173.270085200000011, -35.1132292 ] } },
{ "type": "Feature", "properties": { "id": 9344894183, "tags": { "amenity": "toilets", "fee": "no", "unisex": "yes", "wheelchair": "yes" } }, "geometry": { "type": "Point", "coordinates": [ 169.132315799999986, -44.6962078 ] } },
{ "type": "Feature", "properties": { "id": 9351333568, "tags": { "access": "yes", "amenity": "toilets", "fee": "no", "female": "yes", "indoor": "video_games", "level": "1", "male": "yes", "wheelchair": "yes" } }, "geometry": { "type": "Point", "coordinates": [ 174.8401996, -41.1370496 ] } },
{ "type": "Feature", "properties": { "id": 9634184865, "tags": { "amenity": "toilets" } }, "geometry": { "type": "Point", "coordinates": [ 174.1203501, -35.3114367 ] } },
{ "type": "Feature", "properties": { "id": 9721602071, "tags": { "amenity": "toilets", "fee": "no", "wheelchair": "yes" } }, "geometry": { "type": "Point", "coordinates": [ 174.907539, -37.01286 ] } },
{ "type": "Feature", "properties": { "id": 9847179444, "tags": { "amenity": "toilets" } }, "geometry": { "type": "Point", "coordinates": [ 174.706335700000011, -36.5355986 ] } },
{ "type": "Feature", "properties": { "id": 10062366617, "tags": { "amenity": "toilets" } }, "geometry": { "type": "Point", "coordinates": [ 174.7806535, -36.8943909 ] } },
{ "type": "Feature", "properties": { "id": 10169316367, "tags": { "access": "yes", "amenity": "toilets", "fee": "no", "music": "yes", "toilets:disposal": "flush", "toilets:handwashing": "yes", "wheelchair": "yes" } }, "geometry": { "type": "Point", "coordinates": [ 168.832929299999989, -44.938181 ] } },
{ "type": "Feature", "properties": { "id": 10275048663, "tags": { "amenity": "toilets", "changing_table": "yes" } }, "geometry": { "type": "Point", "coordinates": [ 174.8842223, -36.9937886 ] } },
{ "type": "Feature", "properties": { "id": 10275048667, "tags": { "amenity": "toilets" } }, "geometry": { "type": "Point", "coordinates": [ 174.88318, -36.9943825 ] } },
{ "type": "Feature", "properties": { "id": 10275048668, "tags": { "amenity": "toilets", "changing_table": "yes" } }, "geometry": { "type": "Point", "coordinates": [ 174.8831754, -36.9939092 ] } },
{ "type": "Feature", "properties": { "id": 10275048671, "tags": { "amenity": "toilets" } }, "geometry": { "type": "Point", "coordinates": [ 174.8816472, -36.9951718 ] } },
{ "type": "Feature", "properties": { "id": 10296143322, "tags": { "access": "yes", "amenity": "toilets", "fee": "no", "toilets:disposal": "flush", "wheelchair": "yes" } }, "geometry": { "type": "Point", "coordinates": [ 174.7804588, -41.2897833 ] } },
{ "type": "Feature", "properties": { "id": 10538856930, "tags": { "amenity": "toilets", "toilets:disposal": "flush" } }, "geometry": { "type": "Point", "coordinates": [ 174.7830258, -36.8924066 ] } },
{ "type": "Feature", "properties": { "id": 10547818909, "tags": { "amenity": "toilets", "fee": "no", "opening_hours": "24/7", "wheelchair": "yes" } }, "geometry": { "type": "Point", "coordinates": [ 175.3943921, -39.1758321 ] } },
{ "type": "Feature", "properties": { "id": 10688568927, "tags": { "amenity": "toilets" } }, "geometry": { "type": "Point", "coordinates": [ 168.9418997, -44.7745682 ] } },
{ "type": "Feature", "properties": { "id": 10688569023, "tags": { "amenity": "toilets" } }, "geometry": { "type": "Point", "coordinates": [ 168.862495700000011, -44.8047083 ] } },
{ "type": "Feature", "properties": { "id": 10703792549, "tags": { "amenity": "toilets", "toilets:disposal": "pitlatrine" } }, "geometry": { "type": "Point", "coordinates": [ 171.568190499999986, -43.3195912 ] } },
{ "type": "Feature", "properties": { "id": 10844963705, "tags": { "amenity": "toilets" } }, "geometry": { "type": "Point", "coordinates": [ 175.536997, -39.1976731 ] } },
{ "type": "Feature", "properties": { "id": 10917220687, "tags": { "access": "yes", "amenity": "toilets", "changing_table": "no", "toilets:disposal": "flush", "unisex": "yes" } }, "geometry": { "type": "Point", "coordinates": [ 175.254078, -38.9362516 ] } },
{ "type": "Feature", "properties": { "id": 11242903138, "tags": { "amenity": "toilets" } }, "geometry": { "type": "Point", "coordinates": [ 174.785230399999989, -41.2908346 ] } },
{ "type": "Feature", "properties": { "id": 11372222844, "tags": { "access": "yes", "amenity": "toilets", "toilets:disposal": "flush" } }, "geometry": { "type": "Point", "coordinates": [ 174.8397704, -41.1315405 ] } },
{ "type": "Feature", "properties": { "id": 11395471083, "tags": { "amenity": "toilets", "changing_table": "yes", "fee": "no", "toilets:disposal": "flush", "unisex": "yes", "wheelchair": "yes" } }, "geometry": { "type": "Point", "coordinates": [ 168.6624715, -45.034153 ] } },
{ "type": "Feature", "properties": { "id": 11450748277, "tags": { "amenity": "toilets", "changing_table": "no", "toilets:disposal": "flush", "unisex": "yes" } }, "geometry": { "type": "Point", "coordinates": [ 175.230066, -40.8715813 ] } },
{ "type": "Feature", "properties": { "id": 11450748278, "tags": { "amenity": "toilets" } }, "geometry": { "type": "Point", "coordinates": [ 175.2323452, -40.8732292 ] } },
{ "type": "Feature", "properties": { "id": 11457238969, "tags": { "amenity": "toilets" } }, "geometry": { "type": "Point", "coordinates": [ 174.1442194, -41.1332274 ] } },
{ "type": "Feature", "properties": { "id": 11477666670, "tags": { "access": "yes", "amenity": "toilets", "fee": "no", "note": "for disabled & families", "wheelchair": "yes" } }, "geometry": { "type": "Point", "coordinates": [ 175.1034182, -38.2610289 ] } },
{ "type": "Feature", "properties": { "id": 11481850774, "tags": { "amenity": "toilets" } }, "geometry": { "type": "Point", "coordinates": [ 174.03228, -41.2100897 ] } },
{ "type": "Feature", "properties": { "id": 11520603654, "tags": { "amenity": "toilets" } }, "geometry": { "type": "Point", "coordinates": [ 167.8995009, -46.3585139 ] } },
{ "type": "Feature", "properties": { "id": 11545703170, "tags": { "amenity": "toilets" } }, "geometry": { "type": "Point", "coordinates": [ 169.018313799999987, -44.6744876 ] } },
{ "type": "Feature", "properties": { "id": 11720583769, "tags": { "amenity": "toilets" } }, "geometry": { "type": "Point", "coordinates": [ 169.258417400000013, -44.6107442 ] } },
{ "type": "Feature", "properties": { "id": 11774605408, "tags": { "amenity": "toilets", "toilets:disposal": "pitlatrine", "unisex": "yes" } }, "geometry": { "type": "Point", "coordinates": [ 174.5412355, -36.0676015 ] } },
{ "type": "Feature", "properties": { "id": 11963975514, "tags": { "access": "yes", "amenity": "toilets", "check_date": "2023-08-12", "fee": "no", "level": "0", "portable": "no", "toilets:disposal": "flush", "wheelchair": "yes" } }, "geometry": { "type": "Point", "coordinates": [ 168.6614285, -45.0309214 ] } },
{ "type": "Feature", "properties": { "id": 12245086474, "tags": { "amenity": "toilets", "fee": "no", "toilets:disposal": "flush", "wheelchair": "yes" } }, "geometry": { "type": "Point", "coordinates": [ 175.5407482, -39.2024646 ] } },
{ "type": "Feature", "properties": { "id": 12478005859, "tags": { "amenity": "toilets", "changing_table": "no", "male": "yes" } }, "geometry": { "type": "Point", "coordinates": [ 174.7684396, -36.8691972 ] } },
{ "type": "Feature", "properties": { "id": 12479506296, "tags": { "amenity": "toilets" } }, "geometry": { "type": "Point", "coordinates": [ 174.768038499999989, -36.8695081 ] } },
{ "type": "Feature", "properties": { "id": 12479506297, "tags": { "amenity": "toilets", "changing_table": "no", "level": "0", "male": "yes" } }, "geometry": { "type": "Point", "coordinates": [ 174.768047200000012, -36.8698286 ] } },
{ "type": "Feature", "properties": { "id": 12516843274, "tags": { "access": "customers", "amenity": "toilets", "gender_segregated": "yes", "wheelchair": "yes" } }, "geometry": { "type": "Point", "coordinates": [ 173.972393399999987, -41.2225475 ] } },
{ "type": "Feature", "properties": { "id": 12528016035, "tags": { "access": "yes", "amenity": "toilets", "check_date": "2025-03-12", "fee": "no", "unisex": "yes", "wheelchair": "yes" } }, "geometry": { "type": "Point", "coordinates": [ 175.063787100000013, -40.8761483 ] } },
{ "type": "Feature", "properties": { "id": 12533536358, "tags": { "access": "yes", "amenity": "toilets", "check_date": "2025-01-24", "toilets:disposal": "flush" } }, "geometry": { "type": "Point", "coordinates": [ 174.7710504, -41.2797153 ] } },
{ "type": "Feature", "properties": { "id": 12560735691, "tags": { "access": "yes", "amenity": "toilets", "changing_table": "no", "check_date": "2025-02-06", "fee": "no", "toilets:disposal": "flush", "toilets:handwashing": "yes", "wheelchair": "yes" } }, "geometry": { "type": "Point", "coordinates": [ 169.1378569, -44.6963446 ] } },
{ "type": "Feature", "properties": { "id": 12586243315, "tags": { "amenity": "toilets", "fee": "no" } }, "geometry": { "type": "Point", "coordinates": [ 174.120328, -35.3125882 ] } },
{ "type": "Feature", "properties": { "id": 12603896285, "tags": { "amenity": "toilets" } }, "geometry": { "type": "Point", "coordinates": [ 174.839812099999989, -41.1274306 ] } },
{ "type": "Feature", "properties": { "id": 12603896286, "tags": { "amenity": "toilets" } }, "geometry": { "type": "Point", "coordinates": [ 174.839113, -41.1265999 ] } },
{ "type": "Feature", "properties": { "id": 12603896287, "tags": { "amenity": "toilets" } }, "geometry": { "type": "Point", "coordinates": [ 174.83903620000001, -41.127146 ] } },
{ "type": "Feature", "properties": { "id": 12603896288, "tags": { "amenity": "toilets" } }, "geometry": { "type": "Point", "coordinates": [ 174.8372563, -41.1268325 ] } },
{ "type": "Feature", "properties": { "id": 12603896289, "tags": { "amenity": "toilets" } }, "geometry": { "type": "Point", "coordinates": [ 174.837947899999989, -41.1265429 ] } },
{ "type": "Feature", "properties": { "id": 12603896290, "tags": { "amenity": "toilets" } }, "geometry": { "type": "Point", "coordinates": [ 174.8385776, -41.1264545 ] } },
{ "type": "Feature", "properties": { "id": 12603896291, "tags": { "amenity": "toilets" } }, "geometry": { "type": "Point", "coordinates": [ 174.83916, -41.125565 ] } },
{ "type": "Feature", "properties": { "id": 12603896292, "tags": { "amenity": "toilets" } }, "geometry": { "type": "Point", "coordinates": [ 174.838939, -41.125759 ] } },
{ "type": "Feature", "properties": { "id": 12603896293, "tags": { "amenity": "toilets" } }, "geometry": { "type": "Point", "coordinates": [ 174.8387258, -41.1254928 ] } },
{ "type": "Feature", "properties": { "id": 12603896294, "tags": { "amenity": "toilets" } }, "geometry": { "type": "Point", "coordinates": [ 174.8386691, -41.1258974 ] } },
{ "type": "Feature", "properties": { "id": 12603896295, "tags": { "amenity": "toilets" } }, "geometry": { "type": "Point", "coordinates": [ 174.8376241, -41.1261459 ] } },
{ "type": "Feature", "properties": { "id": 12603896296, "tags": { "amenity": "toilets" } }, "geometry": { "type": "Point", "coordinates": [ 174.8376908, -41.1253705 ] } },
{ "type": "Feature", "properties": { "id": 12661264637, "tags": { "access": "customers", "amenity": "toilets", "check_date": "2025-03-14", "toilets:disposal": "flush" } }, "geometry": { "type": "Point", "coordinates": [ 168.6550823, -45.0306394 ] } },
{ "type": "Feature", "properties": { "id": 12661264662, "tags": { "amenity": "toilets", "toilets:disposal": "flush" } }, "geometry": { "type": "Point", "coordinates": [ 168.6599148, -45.0307995 ] } }
]
}
